ONEWEB-0095             
1 45436U 20020N   25323.23067241 -.00000449  00000+0 -13013-2 0  9994
2 45436  87.8863  62.8736 0001027  85.9367 274.1878 13.11416710275156
ONEWEB-0092             
1 45437U 20020P   25323.27886236  .00000431  00000+0  11803-2 0  9996
2 45437  87.8866  62.8612 0001393 101.4167 258.7118 13.11415414275279
ONEWEB-0085             
1 45438U 20020Q   25323.23901616 -.00000442  00000+0 -12843-2 0  9992
2 45438  87.8862  62.8790 0001604 102.4649 257.6658 13.11417775275150
ONEWEB-0096             
1 45439U 20020R   25323.24070960 -.00000399  00000+0 -11613-2 0  9998
2 45439  87.8871  62.8567 0001735 107.5077 252.6240 13.11417510275147
ONEWEB-0037             
1 45440U 20020S   25323.22120969 -.00000259  00000+0 -76608-3 0  9994
2 45440  87.8881  62.8289 0001539 102.8426 257.2874 13.11414607275170
ONEWEB-0042             
1 45441U 20020T   25323.23039777 -.00000484  00000+0 -14012-2 0  9992
2 45441  87.8869  62.8590 0001532 106.5715 253.5581 13.11416551275148
ONEWEB-0098             
1 45442U 20020U   25323.22629416 -.00000383  00000+0 -11178-2 0  9995
2 45442  87.8871  62.8719 0001690 101.3528 258.7790 13.11417000275122
ONEWEB-0055             
1 45443U 20020V   25323.28564161  .00000317  00000+0  85765-3 0  9996
2 45443  87.8869  62.8608 0001718 101.7024 258.4297 13.11414559275106
ONEWEB-0093             
1 45444U 20020W   25323.26120376  .00000447  00000+0  12242-2 0  9994
2 45444  87.8871  62.8520 0001624 118.1641 241.9652 13.11418019275169
ONEWEB-0029             
1 45445U 20020X   25323.27716956  .00000538  00000+0  14828-2 0  9994
2 45445  87.8873  62.8615 0001699 107.7580 252.3734 13.11417773275146
ONEWEB-0068             
1 45446U 20020Y   25323.26092959  .00000403  00000+0  11005-2 0  9999
2 45446  87.8873  62.8537 0001776 108.3170 251.8151 13.11417121275085
ONEWEB-0046             
1 45447U 20020Z   25323.25258182  .00000111  00000+0  27849-3 0  9991
2 45447  87.8875  62.8636 0001468 108.9527 251.1761 13.11418189275094
ONEWEB-0063             
1 45448U 20020AA  25323.28141017  .00000478  00000+0  13121-2 0  9996
2 45448  87.8872  62.8557 0001399 102.9871 257.1413 13.11415027275181
ONEWEB-0019             
1 45449U 20020AB  25323.25511389  .00000033  00000+0  56383-4 0  9993
2 45449  87.8858  62.8729 0001775 102.5002 257.6324 13.11420574275029
ONEWEB-0094             
1 45450U 20020AC  25323.23941834  .00000069  00000+0  14489-3 0  9994
2 45450  87.9141  47.5817 0001746 103.5130 256.6196 13.17652018278661
ONEWEB-0087             
1 45451U 20020AD  25323.29143258 -.00002974  00000+0 -84278-2 0  9996
2 45451  87.8883  62.8099 0001800 105.1412 254.9915 13.11429997275072
