[{"OBJECT_NAME":"ONEWEB-0095","OBJECT_ID":"2020-020N","EPOCH":"2025-11-19T05:32:10.096224","MEAN_MOTION":13.1141671,"ECCENTRICITY":0.00010273,"INCLINATION":87.8863,"RA_OF_ASC_NODE":62.8736,"ARG_OF_PERICENTER":85.9367,"MEAN_ANOMALY":274.1878,"EPHEMERIS_TYPE":0,"CLASSIFICATION_TYPE":"U","NORAD_CAT_ID":45436,"ELEMENT_SET_NO":999,"REV_AT_EPOCH":27515,"BSTAR":-0.001301332,"MEAN_MOTION_DOT":-4.49e-6,"MEAN_MOTION_DDOT":0},{"OBJECT_NAME":"ONEWEB-0092","OBJECT_ID":"2020-020P","EPOCH":"2025-11-19T06:41:33.707904","MEAN_MOTION":13.11415414,"ECCENTRICITY":0.0001393,"INCLINATION":87.8866,"RA_OF_ASC_NODE":62.8612,"ARG_OF_PERICENTER":101.4167,"MEAN_ANOMALY":258.7118,"EPHEMERIS_TYPE":0,"CLASSIFICATION_TYPE":"U","NORAD_CAT_ID":45437,"ELEMENT_SET_NO":999,"REV_AT_EPOCH":27527,"BSTAR":0.001180323,"MEAN_MOTION_DOT":4.31e-6,"MEAN_MOTION_DDOT":0},{"OBJECT_NAME":"ONEWEB-0085","OBJECT_ID":"2020-020Q","EPOCH":"2025-11-19T05:44:10.996224","MEAN_MOTION":13.11417775,"ECCENTRICITY":0.00016041,"INCLINATION":87.8862,"RA_OF_ASC_NODE":62.879,"ARG_OF_PERICENTER":102.4649,"MEAN_ANOMALY":257.6658,"EPHEMERIS_TYPE":0,"CLASSIFICATION_TYPE":"U","NORAD_CAT_ID":45438,"ELEMENT_SET_NO":999,"REV_AT_EPOCH":27515,"BSTAR":-0.0012842624,"MEAN_MOTION_DOT":-4.42e-6,"MEAN_MOTION_DDOT":0},{"OBJECT_NAME":"ONEWEB-0096","OBJECT_ID":"2020-020R","EPOCH":"2025-11-19T05:46:37.309440","MEAN_MOTION":13.1141751,"ECCENTRICITY":0.00017351,"INCLINATION":87.8871,"RA_OF_ASC_NODE":62.8567,"ARG_OF_PERICENTER":107.5077,"MEAN_ANOMALY":252.624,"EPHEMERIS_TYPE":0,"CLASSIFICATION_TYPE":"U","NORAD_CAT_ID":45439,"ELEMENT_SET_NO":999,"REV_AT_EPOCH":27514,"BSTAR":-0.0011613402,"MEAN_MOTION_DOT":-3.99e-6,"MEAN_MOTION_DDOT":0},{"OBJECT_NAME":"ONEWEB-0037","OBJECT_ID":"2020-020S","EPOCH":"2025-11-19T05:18:32.517216","MEAN_MOTION":13.11414607,"ECCENTRICITY":0.00015391,"INCLINATION":87.8881,"RA_OF_ASC_NODE":62.8289,"ARG_OF_PERICENTER":102.8426,"MEAN_ANOMALY":257.2874,"EPHEMERIS_TYPE":0,"CLASSIFICATION_TYPE":"U","NORAD_CAT_ID":45440,"ELEMENT_SET_NO":999,"REV_AT_EPOCH":27517,"BSTAR":-0.00076608286,"MEAN_MOTION_DOT":-2.59e-6,"MEAN_MOTION_DDOT":0},{"OBJECT_NAME":"ONEWEB-0042","OBJECT_ID":"2020-020T","EPOCH":"2025-11-19T05:31:46.367328","MEAN_MOTION":13.11416551,"ECCENTRICITY":0.00015323,"INCLINATION":87.8869,"RA_OF_ASC_NODE":62.859,"ARG_OF_PERICENTER":106.5715,"MEAN_ANOMALY":253.5581,"EPHEMERIS_TYPE":0,"CLASSIFICATION_TYPE":"U","NORAD_CAT_ID":45441,"ELEMENT_SET_NO":999,"REV_AT_EPOCH":27514,"BSTAR":-0.001401242,"MEAN_MOTION_DOT":-4.84e-6,"MEAN_MOTION_DDOT":0},{"OBJECT_NAME":"ONEWEB-0098","OBJECT_ID":"2020-020U","EPOCH":"2025-11-19T05:25:51.815424","MEAN_MOTION":13.11417,"ECCENTRICITY":0.000169,"INCLINATION":87.8871,"RA_OF_ASC_NODE":62.8719,"ARG_OF_PERICENTER":101.3528,"MEAN_ANOMALY":258.779,"EPHEMERIS_TYPE":0,"CLASSIFICATION_TYPE":"U","NORAD_CAT_ID":45442,"ELEMENT_SET_NO":999,"REV_AT_EPOCH":27512,"BSTAR":-0.0011177695,"MEAN_MOTION_DOT":-3.83e-6,"MEAN_MOTION_DDOT":0},{"OBJECT_NAME":"ONEWEB-0055","OBJECT_ID":"2020-020V","EPOCH":"2025-11-19T06:51:19.435104","MEAN_MOTION":13.11414559,"ECCENTRICITY":0.00017186,"INCLINATION":87.8869,"RA_OF_ASC_NODE":62.8608,"ARG_OF_PERICENTER":101.7024,"MEAN_ANOMALY":258.4297,"EPHEMERIS_TYPE":0,"CLASSIFICATION_TYPE":"U","NORAD_CAT_ID":45443,"ELEMENT_SET_NO":999,"REV_AT_EPOCH":27510,"BSTAR":0.00085765448,"MEAN_MOTION_DOT":3.17e-6,"MEAN_MOTION_DDOT":0},{"OBJECT_NAME":"ONEWEB-0093","OBJECT_ID":"2020-020W","EPOCH":"2025-11-19T06:16:08.004864","MEAN_MOTION":13.11418019,"ECCENTRICITY":0.00016243,"INCLINATION":87.8871,"RA_OF_ASC_NODE":62.852,"ARG_OF_PERICENTER":118.1641,"MEAN_ANOMALY":241.9652,"EPHEMERIS_TYPE":0,"CLASSIFICATION_TYPE":"U","NORAD_CAT_ID":45444,"ELEMENT_SET_NO":999,"REV_AT_EPOCH":27516,"BSTAR":0.0012242087,"MEAN_MOTION_DOT":4.47e-6,"MEAN_MOTION_DDOT":0},{"OBJECT_NAME":"ONEWEB-0029","OBJECT_ID":"2020-020X","EPOCH":"2025-11-19T06:39:07.449984","MEAN_MOTION":13.11417773,"ECCENTRICITY":0.00016997,"INCLINATION":87.8873,"RA_OF_ASC_NODE":62.8615,"ARG_OF_PERICENTER":107.758,"MEAN_ANOMALY":252.3734,"EPHEMERIS_TYPE":0,"CLASSIFICATION_TYPE":"U","NORAD_CAT_ID":45445,"ELEMENT_SET_NO":999,"REV_AT_EPOCH":27514,"BSTAR":0.0014827962,"MEAN_MOTION_DOT":5.38e-6,"MEAN_MOTION_DDOT":0},{"OBJECT_NAME":"ONEWEB-0068","OBJECT_ID":"2020-020Y","EPOCH":"2025-11-19T06:15:44.316576","MEAN_MOTION":13.11417121,"ECCENTRICITY":0.00017763,"INCLINATION":87.8873,"RA_OF_ASC_NODE":62.8537,"ARG_OF_PERICENTER":108.317,"MEAN_ANOMALY":251.8151,"EPHEMERIS_TYPE":0,"CLASSIFICATION_TYPE":"U","NORAD_CAT_ID":45446,"ELEMENT_SET_NO":999,"REV_AT_EPOCH":27508,"BSTAR":0.0011004847,"MEAN_MOTION_DOT":4.03e-6,"MEAN_MOTION_DDOT":0},{"OBJECT_NAME":"ONEWEB-0046","OBJECT_ID":"2020-020Z","EPOCH":"2025-11-19T06:03:43.069248","MEAN_MOTION":13.11418189,"ECCENTRICITY":0.00014687,"INCLINATION":87.8875,"RA_OF_ASC_NODE":62.8636,"ARG_OF_PERICENTER":108.9527,"MEAN_ANOMALY":251.1761,"EPHEMERIS_TYPE":0,"CLASSIFICATION_TYPE":"U","NORAD_CAT_ID":45447,"ELEMENT_SET_NO":999,"REV_AT_EPOCH":27509,"BSTAR":0.00027849097,"MEAN_MOTION_DOT":1.11e-6,"MEAN_MOTION_DDOT":0},{"OBJECT_NAME":"ONEWEB-0063","OBJECT_ID":"2020-020AA","EPOCH":"2025-11-19T06:45:13.838688","MEAN_MOTION":13.11415027,"ECCENTRICITY":0.00013998,"INCLINATION":87.8872,"RA_OF_ASC_NODE":62.8557,"ARG_OF_PERICENTER":102.9871,"MEAN_ANOMALY":257.1413,"EPHEMERIS_TYPE":0,"CLASSIFICATION_TYPE":"U","NORAD_CAT_ID":45448,"ELEMENT_SET_NO":999,"REV_AT_EPOCH":27518,"BSTAR":0.0013121002,"MEAN_MOTION_DOT":4.78e-6,"MEAN_MOTION_DDOT":0},{"OBJECT_NAME":"ONEWEB-0019","OBJECT_ID":"2020-020AB","EPOCH":"2025-11-19T06:07:21.840096","MEAN_MOTION":13.11420574,"ECCENTRICITY":0.00017759,"INCLINATION":87.8858,"RA_OF_ASC_NODE":62.8729,"ARG_OF_PERICENTER":102.5002,"MEAN_ANOMALY":257.6324,"EPHEMERIS_TYPE":0,"CLASSIFICATION_TYPE":"U","NORAD_CAT_ID":45449,"ELEMENT_SET_NO":999,"REV_AT_EPOCH":27502,"BSTAR":5.6383124e-5,"MEAN_MOTION_DOT":3.3e-7,"MEAN_MOTION_DDOT":0},{"OBJECT_NAME":"ONEWEB-0094","OBJECT_ID":"2020-020AC","EPOCH":"2025-11-19T05:44:45.744576","MEAN_MOTION":13.17652018,"ECCENTRICITY":0.00017469,"INCLINATION":87.9141,"RA_OF_ASC_NODE":47.5817,"ARG_OF_PERICENTER":103.513,"MEAN_ANOMALY":256.6196,"EPHEMERIS_TYPE":0,"CLASSIFICATION_TYPE":"U","NORAD_CAT_ID":45450,"ELEMENT_SET_NO":999,"REV_AT_EPOCH":27866,"BSTAR":0.00014488739,"MEAN_MOTION_DOT":6.9e-7,"MEAN_MOTION_DDOT":0},{"OBJECT_NAME":"ONEWEB-0087","OBJECT_ID":"2020-020AD","EPOCH":"2025-11-19T06:59:39.774912","MEAN_MOTION":13.11429997,"ECCENTRICITY":0.00018006,"INCLINATION":87.8883,"RA_OF_ASC_NODE":62.8099,"ARG_OF_PERICENTER":105.1412,"MEAN_ANOMALY":254.9915,"EPHEMERIS_TYPE":0,"CLASSIFICATION_TYPE":"U","NORAD_CAT_ID":45451,"ELEMENT_SET_NO":999,"REV_AT_EPOCH":27507,"BSTAR":-0.0084277554,"MEAN_MOTION_DOT":-2.974e-5,"MEAN_MOTION_DDOT":0}]
